[
    {
        "Altitude(m)": 702908.2972465002,
        "Argument of Periapsis(deg)": 0.010251109067964361,
        "Eccentricity": 0.0,
        "Inclination(deg)": 45.0,
        "Latitude(deg)": 18.609826985382238,
        "Longitude(deg)": 78.87402520146273,
        "Mean Anomaly(deg)": 26.743494982732734,
        "RAAN(deg)": 159.99032325268763,
        "Satellite Name": "Constellation 1 705",
        "Satellite Number": 705,
        "Semi-Major Axis(m)": 7083131.272910544,
        "Time(s)": 171
    },
    {
        "Altitude(m)": 702911.1060974607,
        "Argument of Periapsis(deg)": 0.010311057074209765,
        "Eccentricity": 0.0,
        "Inclination(deg)": 45.0,
        "Latitude(deg)": 18.650516517242096,
        "Longitude(deg)": 78.91763046889179,
        "Mean Anomaly(deg)": 26.804196122982624,
        "RAAN(deg)": 159.99026666352202,
        "Satellite Name": "Constellation 1 705",
        "Satellite Number": 705,
        "Semi-Major Axis(m)": 7083131.272910544,
        "Time(s)": 172
    },
    {
        "Altitude(m)": 702913.9298967649,
        "Argument of Periapsis(deg)": 0.010371005080455171,
        "Eccentricity": 0.0,
        "Inclination(deg)": 45.0,
        "Latitude(deg)": 18.69119377897729,
        "Longitude(deg)": 78.96125848306808,
        "Mean Anomaly(deg)": 26.864897263232535,
        "RAAN(deg)": 159.99021007435647,
        "Satellite Name": "Constellation 1 705",
        "Satellite Number": 705,
        "Semi-Major Axis(m)": 7083131.272910544,
        "Time(s)": 173
    },
    {
        "Altitude(m)": 702916.7686146687,
        "Argument of Periapsis(deg)": 0.010430953086700577,
        "Eccentricity": 0.0,
        "Inclination(deg)": 45.0,
        "Latitude(deg)": 18.73185873615525,
        "Longitude(deg)": 79.00490930121204,
        "Mean Anomaly(deg)": 26.925598403482446,
        "RAAN(deg)": 159.99015348519092,
        "Satellite Name": "Constellation 1 705",
        "Satellite Number": 705,
        "Semi-Major Axis(m)": 7083131.272910544,
        "Time(s)": 174
    },
    {
        "Altitude(m)": 702919.6222213636,
        "Argument of Periapsis(deg)": 0.010490901092945983,
        "Eccentricity": 0.0,
        "Inclination(deg)": 45.0,
        "Latitude(deg)": 18.772511354298484,
        "Longitude(deg)": 79.0485829805741,
        "Mean Anomaly(deg)": 26.986299543732336,
        "RAAN(deg)": 159.99009689602534,
        "Satellite Name": "Constellation 1 705",
        "Satellite Number": 705,
        "Semi-Major Axis(m)": 7083131.272910544,
        "Time(s)": 175
    },
    {
        "Altitude(m)": 702922.49068699,
        "Argument of Periapsis(deg)": 0.010550849099191389,
        "Eccentricity": 0.0,
        "Inclination(deg)": 45.0,
        "Latitude(deg)": 18.81315159888447,
        "Longitude(deg)": 79.09227957843483,
        "Mean Anomaly(deg)": 27.047000683982247,
        "RAAN(deg)": 159.99004030685978,
        "Satellite Name": "Constellation 1 705",
        "Satellite Number": 705,
        "Semi-Major Axis(m)": 7083131.272910544,
        "Time(s)": 176
    },
    {
        "Altitude(m)": 702925.3739816272,
        "Argument of Periapsis(deg)": 0.010610797105436795,
        "Eccentricity": 0.0,
        "Inclination(deg)": 45.0,
        "Latitude(deg)": 18.853779435345466,
        "Longitude(deg)": 79.13599915210463,
        "Mean Anomaly(deg)": 27.10770182423213,
        "RAAN(deg)": 159.9899837176942,
        "Satellite Name": "Constellation 1 705",
        "Satellite Number": 705,
        "Semi-Major Axis(m)": 7083131.272910544,
        "Time(s)": 177
    },
    {
        "Altitude(m)": 702928.2720753058,
        "Argument of Periapsis(deg)": 0.0106707451116822,
        "Eccentricity": 0.0,
        "Inclination(deg)": 45.0,
        "Latitude(deg)": 18.89439482906835,
        "Longitude(deg)": 79.17974159082681,
        "Mean Anomaly(deg)": 27.16840296448204,
        "RAAN(deg)": 159.98992712852862,
        "Satellite Name": "Constellation 1 705",
        "Satellite Number": 705,
        "Semi-Major Axis(m)": 7083131.272910544,
        "Time(s)": 178
    },
    {
        "Altitude(m)": 702931.184937979,
        "Argument of Periapsis(deg)": 0.010730693117927606,
        "Eccentricity": 0.0,
        "Inclination(deg)": 45.0,
        "Latitude(deg)": 18.93499774539491,
        "Longitude(deg)": 79.22350728816599,
        "Mean Anomaly(deg)": 27.22910410473193,
        "RAAN(deg)": 159.98987053936307,
        "Satellite Name": "Constellation 1 705",
        "Satellite Number": 705,
        "Semi-Major Axis(m)": 7083131.272910544,
        "Time(s)": 179
    },
    {
        "Altitude(m)": 702934.1125395569,
        "Argument of Periapsis(deg)": 0.01079064112417301,
        "Eccentricity": 0.0,
        "Inclination(deg)": 45.0,
        "Latitude(deg)": 18.97558814962112,
        "Longitude(deg)": 79.2672961334251,
        "Mean Anomaly(deg)": 27.289805244981842,
        "RAAN(deg)": 159.9898139501975,
        "Satellite Name": "Constellation 1 705",
        "Satellite Number": 705,
        "Semi-Major Axis(m)": 7083131.272910544,
        "Time(s)": 180
    },
    {
        "Altitude(m)": 702937.0548498958,
        "Argument of Periapsis(deg)": 0.010850589130418416,
        "Eccentricity": 0.0,
        "Inclination(deg)": 45.0,
        "Latitude(deg)": 19.016166006997352,
        "Longitude(deg)": 79.31110818403421,
        "Mean Anomaly(deg)": 27.350506385231732,
        "RAAN(deg)": 159.9897573610319,
        "Satellite Name": "Constellation 1 705",
        "Satellite Number": 705,
        "Semi-Major Axis(m)": 7083131.272910544,
        "Time(s)": 181
    },
    {
        "Altitude(m)": 702940.0118387826,
        "Argument of Periapsis(deg)": 0.01091053713666382,
        "Eccentricity": 0.0,
        "Inclination(deg)": 45.0,
        "Latitude(deg)": 19.056731282728364,
        "Longitude(deg)": 79.35494349745301,
        "Mean Anomaly(deg)": 27.411207525481643,
        "RAAN(deg)": 159.98970077186635,
        "Satellite Name": "Constellation 1 705",
        "Satellite Number": 705,
        "Semi-Major Axis(m)": 7083131.272910544,
        "Time(s)": 182
    },
    {
        "Altitude(m)": 702942.9834759522,
        "Argument of Periapsis(deg)": 0.010970485142909228,
        "Eccentricity": 0.0,
        "Inclination(deg)": 45.0,
        "Latitude(deg)": 19.097283941972922,
        "Longitude(deg)": 79.39880213117085,
        "Mean Anomaly(deg)": 27.47190866573155,
        "RAAN(deg)": 159.98964418270077,
        "Satellite Name": "Constellation 1 705",
        "Satellite Number": 705,
        "Semi-Major Axis(m)": 7083131.272910544,
        "Time(s)": 183
    },
    {
        "Altitude(m)": 702945.9697310948,
        "Argument of Periapsis(deg)": 0.011030433149154634,
        "Eccentricity": 0.0,
        "Inclination(deg)": 45.0,
        "Latitude(deg)": 19.137823949843813,
        "Longitude(deg)": 79.44268414270674,
        "Mean Anomaly(deg)": 27.532609805981437,
        "RAAN(deg)": 159.98958759353522,
        "Satellite Name": "Constellation 1 705",
        "Satellite Number": 705,
        "Semi-Major Axis(m)": 7083131.272910544,
        "Time(s)": 184
    },
    {
        "Altitude(m)": 702948.9705738189,
        "Argument of Periapsis(deg)": 0.01109038115540004,
        "Eccentricity": 0.0,
        "Inclination(deg)": 45.0,
        "Latitude(deg)": 19.178351271407703,
        "Longitude(deg)": 79.48658942151219,
        "Mean Anomaly(deg)": 27.59331094623135,
        "RAAN(deg)": 159.98953100436967,
        "Satellite Name": "Constellation 1 705",
        "Satellite Number": 705,
        "Semi-Major Axis(m)": 7083131.272910544,
        "Time(s)": 185
    },
    {
        "Altitude(m)": 702951.9859737033,
        "Argument of Periapsis(deg)": 0.011150329161645444,
        "Eccentricity": 0.0,
        "Inclination(deg)": 45.0,
        "Latitude(deg)": 19.218865871685267,
        "Longitude(deg)": 79.53051836135958,
        "Mean Anomaly(deg)": 27.654012086481213,
        "RAAN(deg)": 159.98947441520406,
        "Satellite Name": "Constellation 1 705",
        "Satellite Number": 705,
        "Semi-Major Axis(m)": 7083131.272910544,
        "Time(s)": 186
    },
    {
        "Altitude(m)": 702955.0159002522,
        "Argument of Periapsis(deg)": 0.01121027716789085,
        "Eccentricity": 0.0,
        "Inclination(deg)": 45.0,
        "Latitude(deg)": 19.2593677156506,
        "Longitude(deg)": 79.57447085175953,
        "Mean Anomaly(deg)": 27.714713226731124,
        "RAAN(deg)": 159.9894178260385,
        "Satellite Name": "Constellation 1 705",
        "Satellite Number": 705,
        "Semi-Major Axis(m)": 7083131.272910544,
        "Time(s)": 187
    },
    {
        "Altitude(m)": 702958.0603229221,
        "Argument of Periapsis(deg)": 0.011270225174136258,
        "Eccentricity": 0.0,
        "Inclination(deg)": 45.0,
        "Latitude(deg)": 19.29985676823143,
        "Longitude(deg)": 79.61844695034902,
        "Mean Anomaly(deg)": 27.775414366981014,
        "RAAN(deg)": 159.98936123687292,
        "Satellite Name": "Constellation 1 705",
        "Satellite Number": 705,
        "Semi-Major Axis(m)": 7083131.272910544,
        "Time(s)": 188
    },
    {
        "Altitude(m)": 702961.1192111084,
        "Argument of Periapsis(deg)": 0.011330173180381662,
        "Eccentricity": 0.0,
        "Inclination(deg)": 45.0,
        "Latitude(deg)": 19.340332994308913,
        "Longitude(deg)": 79.66244671479448,
        "Mean Anomaly(deg)": 27.83611550723092,
        "RAAN(deg)": 159.98930464770737,
        "Satellite Name": "Constellation 1 705",
        "Satellite Number": 705,
        "Semi-Major Axis(m)": 7083131.272910544,
        "Time(s)": 189
    }
]